SatCatId,ObjectName,LaunchYear,OrbitalPeriod,LaunchMass,StatusCode,Inclination,Status,UcsData,OrbitClassEstimated,LaunchSiteCountry,Owner,UseType,Purpose,LaunchVehicleClass,TLE1,TLE2,MeanMotion,Eccentricity,OrbitClass
54849,STARLINK-5434,2022,95.84,260.0,+,43.01,Active,1,LEO,USA,USA,Commercial,Communications,Falcon,1 54849U 22177AF  24173.67867450 -.00000994  00000+0 -58533-4 0  9990,2 54849  43.0047 294.3255 0001252 277.9297  82.1403 15.02532386 81814,15.02532386,0.0001252,LEO
54850,STARLINK-5087,2022,95.84,260.0,+,43.0,Active,1,LEO,USA,USA,Commercial,Communications,Falcon,1 54850U 22177AG  24173.34554776 -.00000026  00000+0  13119-4 0  9996,2 54850  43.0071 283.9853 0001355 265.9060  94.1628 15.02532189 81903,15.02532189,0.0001355,LEO
54851,STARLINK-5084,2022,95.84,260.0,+,43.0,Active,1,LEO,USA,USA,Commercial,Communications,Falcon,1 54851U 22177AH  24173.68126211 -.00001306  00000+0 -81632-4 0  9991,2 54851  43.0027 282.2023 0000627 245.3077 114.7700 15.02543225 81955,15.02543225,6.27e-05,LEO
54852,STARLINK-5418,2022,95.84,260.0,+,43.0,Active,1,LEO,USA,USA,Commercial,Communications,Falcon,1 54852U 22177AJ  24173.60479155 -.00004721  00000+0 -33434-3 0  9992,2 54852  43.0053 282.4870 0001734 296.2284  63.8380 15.02564012 81946,15.02564012,0.0001734,LEO
54853,STARLINK-5427,2022,95.84,260.0,+,43.0,Active,1,LEO,USA,USA,Commercial,Communications,Falcon,1 54853U 22177AK  24173.34221934  .00000309  00000+0  37938-4 0  9994,2 54853  43.0052 283.9577 0002006 272.2264  87.8348 15.02531913 82889,15.02531913,0.0002006,LEO
54854,STARLINK-5419,2022,95.84,260.0,+,43.0,Active,1,LEO,USA,USA,Commercial,Communications,Falcon,1 54854U 22177AL  24173.33334117  .00000797  00000+0  74062-4 0  9992,2 54854  43.0066 283.8888 0001335 274.9084  85.1606 15.02533799 82884,15.02533799,0.0001335,LEO
54855,STARLINK-5416,2022,95.84,260.0,+,43.0,Active,1,LEO,USA,USA,Commercial,Communications,Falcon,1 54855U 22177AM  24173.33555651  .00001011  00000+0  89940-4 0  9992,2 54855  43.0040 283.9048 0001118 262.8470  97.2245 15.02534191 82880,15.02534191,0.0001118,LEO
54856,STARLINK-5086,2022,95.84,260.0,+,43.01,Active,1,LEO,USA,USA,Commercial,Communications,Falcon,1 54856U 22177AN  24173.71444840  .00000200  00000+0  29873-4 0  9990,2 54856  43.0055 281.5897 0001575 269.6137  90.4524 15.02527687 81960,15.02527687,0.0001575,LEO
54857,STARLINK-5078,2022,95.84,260.0,+,43.0,Active,1,LEO,USA,USA,Commercial,Communications,Falcon,1 54857U 22177AP  24173.32667787  .00000208  00000+0  30490-4 0  9990,2 54857  43.0040 283.8447 0001313 271.1528  88.9164 15.02537066 82889,15.02537066,0.0001313,LEO
54858,STARLINK-5407,2022,95.84,260.0,+,43.0,Active,1,LEO,USA,USA,Commercial,Communications,Falcon,1 54858U 22177AQ  24173.39537449  .00000521  00000+0  53635-4 0  9993,2 54858  43.0074 283.4949 0001201 247.1970 112.8746 15.02531408 82898,15.02531408,0.0001201,LEO
54859,STARLINK-5409,2022,95.84,260.0,+,43.0,Active,1,LEO,USA,USA,Commercial,Communications,Falcon,1 54859U 22177AR  24173.38538174  .00000611  00000+0  60281-4 0  9994,2 54859  43.0052 283.4204 0001747 267.7753  92.2889 15.02539469 82895,15.02539469,0.0001747,LEO
54860,STARLINK-5406,2022,95.84,260.0,+,43.0,Active,1,LEO,USA,USA,Commercial,Communications,Falcon,1 54860U 22177AS  24173.37983194 -.00002450  00000+0 -16631-3 0  9995,2 54860  43.0038 283.3764 0002192 275.9666  84.0926 15.02544337 82891,15.02544337,0.0002192,LEO
54861,STARLINK-5400,2022,95.84,260.0,+,43.0,Active,1,LEO,USA,USA,Commercial,Communications,Falcon,1 54861U 22177AT  24173.39648632  .00000815  00000+0  75430-4 0  9997,2 54861  43.0070 283.5048 0001202 263.5046  96.5659 15.02535205 82896,15.02535205,0.0001202,LEO
54862,STARLINK-5403,2022,95.84,260.0,+,43.01,Active,1,LEO,USA,USA,Commercial,Communications,Falcon,1 54862U 22177AU  24173.35331948 -.00000278  00000+0 -54731-5 0  9990,2 54862  43.0037 284.0556 0001360 277.7785  82.2903 15.02532675 82883,15.02532675,0.000136,LEO
54863,STARLINK-5405,2022,95.84,260.0,+,43.0,Active,1,LEO,USA,USA,Commercial,Communications,Falcon,1 54863U 22177AV  24173.32223611  .00000091  00000+0  21807-4 0  9993,2 54863  43.0012 283.8033 0001181 268.9478  91.1229 15.02536213 82888,15.02536213,0.0001181,LEO
54864,STARLINK-5359,2022,95.84,260.0,+,43.0,Active,1,LEO,USA,USA,Commercial,Communications,Falcon,1 54864U 22177AW  24173.37650760  .00001956  00000+0  15982-3 0  9995,2 54864  43.0025 283.3537 0001290 269.1575  90.9120 15.02530652 82898,15.02530652,0.000129,LEO
54865,STARLINK-5411,2022,95.84,260.0,+,43.01,Active,1,LEO,USA,USA,Commercial,Communications,Falcon,1 54865U 22177AX  24173.32556603  .00000191  00000+0  29223-4 0  9996,2 54865  43.0068 283.8339 0001788 272.9874  87.0764 15.02534325 81786,15.02534325,0.0001788,LEO
54866,STARLINK-5398,2022,95.84,260.0,+,43.0,Active,1,LEO,USA,USA,Commercial,Communications,Falcon,1 54866U 22177AY  24173.69890992  .00002033  00000+0  16554-3 0  9998,2 54866  43.0050 281.4718 0001449 275.0233  85.0444 15.02528983 81966,15.02528983,0.0001449,LEO
54867,STARLINK-5396,2022,95.84,260.0,+,43.0,Active,1,LEO,USA,USA,Commercial,Communications,Falcon,1 54867U 22177AZ  24173.37872099 -.00001974  00000+0 -13110-3 0  9992,2 54867  43.0047 283.3708 0001670 267.1083  92.9568 15.02541461 82897,15.02541461,0.000167,LEO
54868,STARLINK-5379,2022,95.84,260.0,+,43.01,Active,1,LEO,USA,USA,Commercial,Communications,Falcon,1 54868U 22177BA  24173.29559811  .00001426  00000+0  12064-3 0  9995,2 54868  43.0028 283.6013 0001881 268.1182  91.9445 15.02535134 82886,15.02535134,0.0001881,LEO
54869,STARLINK-5402,2022,95.84,260.0,+,43.01,Active,1,LEO,USA,USA,Commercial,Communications,Falcon,1 54869U 22177BB  24173.70445796  .00001715  00000+0  14204-3 0  9997,2 54869  43.0060 281.5135 0001430 279.6200  80.4480 15.02533391 81843,15.02533391,0.000143,LEO
54870,STARLINK-5401,2022,95.84,260.0,+,43.0,Active,1,LEO,USA,USA,Commercial,Communications,Falcon,1 54870U 22177BC  24173.36429738 -.00000321  00000+0 -87110-5 0  9991,2 54870  43.0052 283.2610 0001462 269.9762  90.0913 15.02537237 82890,15.02537237,0.0001462,LEO
54871,STARLINK-5397,2022,95.84,260.0,+,43.0,Active,1,LEO,USA,USA,Commercial,Communications,Falcon,1 54871U 22177BD  24173.37317350  .00001587  00000+0  13250-3 0  9994,2 54871  43.0044 283.3274 0001566 261.5561  98.5104 15.02538394 82899,15.02538394,0.0001566,LEO
54872,STARLINK-5390,2022,95.84,260.0,+,43.01,Active,1,LEO,USA,USA,Commercial,Communications,Falcon,1 54872U 22177BE  24173.35653270  .00001640  00000+0  13644-3 0  9994,2 54872  43.0060 283.2297 0001737 267.3851  92.6793 15.02534310 82891,15.0253431,0.0001737,LEO
54873,STARLINK-5091,2022,95.84,260.0,+,43.01,Active,1,LEO,USA,USA,Commercial,Communications,Falcon,1 54873U 22177BF  24173.35874703  .00000870  00000+0  79494-4 0  9991,2 54873  43.0064 283.2197 0001587 266.5886  93.4775 15.02533981 82899,15.02533981,0.0001587,LEO
54878,SHIYAN 10-02 (SY-10 02),2022,717.65,-1.0,+,63.74,Active,0,MEO,PRC,China,Unknown,Unknown,Unknown,1 54878U 22178A   24172.88756865  .00000838  00000+0  00000+0 0  9998,2 54878  63.7386  49.4053 7102228 269.2592  16.3226  2.00656791  1983,2.00656791,0.7102228,MEO
54880,EROS C3,2022,94.2,-1.0,+,139.35,Active,0,LEO,USA,Israel,Unknown,Unknown,Unknown,1 54880U 22179A   24173.85166847  .00016723  00000+0  57334-3 0  9991,2 54880 139.3477 155.2217 0006408 167.0723 193.0255 15.28648973 82668,15.28648973,0.0006408,LEO
55009,STAR VIBE,2023,94.74,10.0,+,97.42,Active,1,LEO,USA,Poland,Commercial,Technology Development,Falcon,1 55009U 23001A   24173.82179942  .00007344  00000+0  34409-3 0  9994,2 55009  97.4238 231.4962 0009537 168.4589 191.6867 15.19957519 81218,15.19957519,0.0009537,LEO
55010,MENUT,2023,94.74,10.0,+,97.43,Active,1,LEO,USA,Spain,Commercial,Earth Observation,Falcon,1 55010U 23001B   24173.79312210  .00006085  00000+0  28564-3 0  9995,2 55010  97.4302 231.9872 0009879 169.1225 191.0226 15.19963431 81225,15.19963431,0.0009879,LEO
55011,BRO-8,2023,94.78,10.0,+,97.43,Active,1,LEO,USA,France,Commercial,Earth Observation,Falcon,1 55011U 23001C   24173.85503811  .00007144  00000+0  34095-3 0  9995,2 55011  97.4305 231.8688 0010527 170.5020 189.6415 15.19319245 81214,15.19319245,0.0010527,LEO
55012,CONNECTA T1.2,2023,94.57,10.0,+,97.43,Active,1,LEO,USA,Turkey,Commercial,Communications,Falcon,1 55012U 23001D   24173.16587346  .00007334  00000+0  31699-3 0  9993,2 55012  97.4315 232.2728 0011178 165.7179 194.4375 15.22711258 81178,15.22711258,0.0011178,LEO
55013,LEMUR-2-PHILARI,2023,92.4,10.0,+,97.42,Active,1,LEO,USA,USA,Commercial,Earth Observation,Falcon,1 55013U 23001E   24173.71750219  .00155429  00000+0  19698-2 0  9999,2 55013  97.4199 240.7977 0007023 169.7544 190.3857 15.58913299 81823,15.58913299,0.0007023,LEO
55014,LEMUR-2-DISCLAIMER,2023,91.91,10.0,+,97.42,Active,1,LEO,USA,USA,Commercial,Earth Observation,Falcon,1 55014U 23001F   24173.19615815  .00207094  00000+0  18957-2 0  9997,2 55014  97.4174 241.2899 0007377 187.8701 172.2445 15.67116326 81798,15.67116326,0.0007377,LEO
55015,BIRKELAND,2023,94.59,10.0,+,97.43,Active,1,LEO,USA,Norway,Military,Earth Observation,Falcon,1 55015U 23001G   24173.86137765  .00005908  00000+0  25865-3 0  9992,2 55015  97.4319 233.4082 0010212 159.5474 200.6173 15.22371801 81316,15.22371801,0.0010212,LEO
55017,LEMUR-2-STEVEALBERS,2023,92.98,10.0,+,97.42,Active,1,LEO,USA,USA,Commercial,Earth Observation,Falcon,1 55017U 23001J   24173.16814346  .00068890  00000+0  12691-2 0  9995,2 55017  97.4176 238.8302 0008158 142.2944 217.8880 15.48887261 81652,15.48887261,0.0008158,LEO
55018,KSF3-C,2023,93.9,10.0,+,97.42,Active,1,LEO,USA,Luxembourg,Commercial,Earth Observation,Falcon,1 55018U 23001K   24173.81607782  .00025344  00000+0  77769-3 0  9997,2 55018  97.4224 235.8878 0009287 152.0354 208.1389 15.33692479 81500,15.33692479,0.0009287,LEO
